[{"OBJECT_NAME":"COSMOS 2251 DEB","OBJECT_ID":"1993-036AKB","EPOCH":"2026-02-24T17:53:17.153952","MEAN_MOTION":14.34882577,"ECCENTRICITY":0.00273079,"INCLINATION":74.0331,"RA_OF_ASC_NODE":202.8312,"ARG_OF_PERICENTER":243.897,"MEAN_ANOMALY":180.0673,"EPHEMERIS_TYPE":0,"CLASSIFICATION_TYPE":"U","NORAD_CAT_ID":35433,"ELEMENT_SET_NO":999,"REV_AT_EPOCH":87642,"BSTAR":0.00028169265,"MEAN_MOTION_DOT":7.77e-6,"MEAN_MOTION_DDOT":0},{"OBJECT_NAME":"COSMOS 2251 DEB","OBJECT_ID":"1993-036AKC","EPOCH":"2026-03-12T07:09:36.795456","MEAN_MOTION":14.26031614,"ECCENTRICITY":0.0084065,"INCLINATION":74.0398,"RA_OF_ASC_NODE":51.9283,"ARG_OF_PERICENTER":102.306,"MEAN_ANOMALY":258.7515,"EPHEMERIS_TYPE":0,"CLASSIFICATION_TYPE":"U","NORAD_CAT_ID":35434,"ELEMENT_SET_NO":999,"REV_AT_EPOCH":87394,"BSTAR":0.00068146,"MEAN_MOTION_DOT":1.664e-5,"MEAN_MOTION_DDOT":0},{"OBJECT_NAME":"COSMOS 2251 DEB","OBJECT_ID":"1993-036AKD","EPOCH":"2026-03-13T20:30:23.272128","MEAN_MOTION":14.81607925,"ECCENTRICITY":0.00074613,"INCLINATION":74.0088,"RA_OF_ASC_NODE":284.2915,"ARG_OF_PERICENTER":354.4122,"MEAN_ANOMALY":23.4198,"EPHEMERIS_TYPE":0,"CLASSIFICATION_TYPE":"U","NORAD_CAT_ID":35435,"ELEMENT_SET_NO":999,"REV_AT_EPOCH":88887,"BSTAR":0.0017761622,"MEAN_MOTION_DOT":0.00013964,"MEAN_MOTION_DDOT":0},{"OBJECT_NAME":"COSMOS 2251 DEB","OBJECT_ID":"1993-036AKH","EPOCH":"2026-03-06T12:23:00.086208","MEAN_MOTION":13.93289547,"ECCENTRICITY":0.02411544,"INCLINATION":74.0202,"RA_OF_ASC_NODE":351.1264,"ARG_OF_PERICENTER":142.2262,"MEAN_ANOMALY":30.2017,"EPHEMERIS_TYPE":0,"CLASSIFICATION_TYPE":"U","NORAD_CAT_ID":35439,"ELEMENT_SET_NO":999,"REV_AT_EPOCH":85127,"BSTAR":0.0014570499,"MEAN_MOTION_DOT":2.397e-5,"MEAN_MOTION_DDOT":0},{"OBJECT_NAME":"COSMOS 2251 DEB","OBJECT_ID":"1993-036AKK","EPOCH":"2026-03-14T09:59:33.662112","MEAN_MOTION":14.64258294,"ECCENTRICITY":0.00365749,"INCLINATION":74.1335,"RA_OF_ASC_NODE":123.2562,"ARG_OF_PERICENTER":343.2948,"MEAN_ANOMALY":16.7013,"EPHEMERIS_TYPE":0,"CLASSIFICATION_TYPE":"U","NORAD_CAT_ID":35441,"ELEMENT_SET_NO":999,"REV_AT_EPOCH":88771,"BSTAR":0.0013919083,"MEAN_MOTION_DOT":7.386e-5,"MEAN_MOTION_DDOT":0},{"OBJECT_NAME":"COSMOS 2251 DEB","OBJECT_ID":"1993-036AKL","EPOCH":"2026-03-14T13:21:39.723264","MEAN_MOTION":14.88946292,"ECCENTRICITY":0.00033911,"INCLINATION":74.0236,"RA_OF_ASC_NODE":276.2763,"ARG_OF_PERICENTER":244.3064,"MEAN_ANOMALY":115.7767,"EPHEMERIS_TYPE":0,"CLASSIFICATION_TYPE":"U","NORAD_CAT_ID":35442,"ELEMENT_SET_NO":999,"REV_AT_EPOCH":88717,"BSTAR":0.0032887856,"MEAN_MOTION_DOT":0.00031013,"MEAN_MOTION_DDOT":0},{"OBJECT_NAME":"COSMOS 2251 DEB","OBJECT_ID":"1993-036AKM","EPOCH":"2026-03-13T04:34:53.305536","MEAN_MOTION":15.08730417,"ECCENTRICITY":0.00686062,"INCLINATION":73.9805,"RA_OF_ASC_NODE":146.493,"ARG_OF_PERICENTER":272.433,"MEAN_ANOMALY":86.9008,"EPHEMERIS_TYPE":0,"CLASSIFICATION_TYPE":"U","NORAD_CAT_ID":35443,"ELEMENT_SET_NO":999,"REV_AT_EPOCH":88236,"BSTAR":0.0042411677,"MEAN_MOTION_DOT":0.00070957,"MEAN_MOTION_DDOT":0},{"OBJECT_NAME":"COSMOS 2251 DEB","OBJECT_ID":"1993-036AKP","EPOCH":"2026-03-14T13:27:30.194496","MEAN_MOTION":14.61171999,"ECCENTRICITY":0.01407553,"INCLINATION":74.0353,"RA_OF_ASC_NODE":124.6742,"ARG_OF_PERICENTER":190.909,"MEAN_ANOMALY":168.9018,"EPHEMERIS_TYPE":0,"CLASSIFICATION_TYPE":"U","NORAD_CAT_ID":35445,"ELEMENT_SET_NO":999,"REV_AT_EPOCH":88669,"BSTAR":0.0017812143,"MEAN_MOTION_DOT":0.00010078,"MEAN_MOTION_DDOT":0},{"OBJECT_NAME":"COSMOS 2251 DEB","OBJECT_ID":"1993-036AKQ","EPOCH":"2026-03-14T15:01:21.501120","MEAN_MOTION":14.54740886,"ECCENTRICITY":0.00768467,"INCLINATION":74.0468,"RA_OF_ASC_NODE":144.4341,"ARG_OF_PERICENTER":240.0633,"MEAN_ANOMALY":119.2884,"EPHEMERIS_TYPE":0,"CLASSIFICATION_TYPE":"U","NORAD_CAT_ID":35446,"ELEMENT_SET_NO":999,"REV_AT_EPOCH":89344,"BSTAR":0.00011453987,"MEAN_MOTION_DOT":4.79e-6,"MEAN_MOTION_DDOT":0},{"OBJECT_NAME":"COSMOS 2251 DEB","OBJECT_ID":"1993-036AKS","EPOCH":"2026-03-11T13:22:25.807296","MEAN_MOTION":14.55098698,"ECCENTRICITY":0.00104383,"INCLINATION":73.9026,"RA_OF_ASC_NODE":280.0947,"ARG_OF_PERICENTER":81.2509,"MEAN_ANOMALY":278.9835,"EPHEMERIS_TYPE":0,"CLASSIFICATION_TYPE":"U","NORAD_CAT_ID":35448,"ELEMENT_SET_NO":999,"REV_AT_EPOCH":88626,"BSTAR":0.00073396976,"MEAN_MOTION_DOT":3.142e-5,"MEAN_MOTION_DDOT":0},{"OBJECT_NAME":"COSMOS 2251 DEB","OBJECT_ID":"1993-036AKV","EPOCH":"2026-03-13T06:13:22.599840","MEAN_MOTION":15.50674045,"ECCENTRICITY":0.00292602,"INCLINATION":73.9249,"RA_OF_ASC_NODE":265.0895,"ARG_OF_PERICENTER":129.0445,"MEAN_ANOMALY":231.3379,"EPHEMERIS_TYPE":0,"CLASSIFICATION_TYPE":"U","NORAD_CAT_ID":35451,"ELEMENT_SET_NO":999,"REV_AT_EPOCH":68801,"BSTAR":0.0018975661,"MEAN_MOTION_DOT":0.00112414,"MEAN_MOTION_DDOT":0},{"OBJECT_NAME":"COSMOS 2251 DEB","OBJECT_ID":"1993-036AKX","EPOCH":"2026-03-11T02:32:23.018208","MEAN_MOTION":14.38384722,"ECCENTRICITY":0.00685265,"INCLINATION":74.0077,"RA_OF_ASC_NODE":217.2854,"ARG_OF_PERICENTER":328.351,"MEAN_ANOMALY":31.3531,"EPHEMERIS_TYPE":0,"CLASSIFICATION_TYPE":"U","NORAD_CAT_ID":35453,"ELEMENT_SET_NO":999,"REV_AT_EPOCH":87489,"BSTAR":0.00085303251,"MEAN_MOTION_DOT":2.646e-5,"MEAN_MOTION_DDOT":0},{"OBJECT_NAME":"COSMOS 2251 DEB","OBJECT_ID":"1993-036AKZ","EPOCH":"2026-03-14T13:29:57.691392","MEAN_MOTION":14.50242947,"ECCENTRICITY":0.01012606,"INCLINATION":74.0265,"RA_OF_ASC_NODE":122.2932,"ARG_OF_PERICENTER":206.0575,"MEAN_ANOMALY":153.547,"EPHEMERIS_TYPE":0,"CLASSIFICATION_TYPE":"U","NORAD_CAT_ID":35455,"ELEMENT_SET_NO":999,"REV_AT_EPOCH":87874,"BSTAR":0.00096154274,"MEAN_MOTION_DOT":3.97e-5,"MEAN_MOTION_DDOT":0},{"OBJECT_NAME":"COSMOS 2251 DEB","OBJECT_ID":"1993-036ALA","EPOCH":"2026-03-14T08:36:26.973792","MEAN_MOTION":14.71626393,"ECCENTRICITY":0.00635754,"INCLINATION":73.9497,"RA_OF_ASC_NODE":298.729,"ARG_OF_PERICENTER":128.1514,"MEAN_ANOMALY":232.541,"EPHEMERIS_TYPE":0,"CLASSIFICATION_TYPE":"U","NORAD_CAT_ID":35456,"ELEMENT_SET_NO":999,"REV_AT_EPOCH":67222,"BSTAR":0.001805076,"MEAN_MOTION_DOT":0.00011583,"MEAN_MOTION_DDOT":0},{"OBJECT_NAME":"COSMOS 2251 DEB","OBJECT_ID":"1993-036ALD","EPOCH":"2026-03-12T03:25:08.570784","MEAN_MOTION":14.37641136,"ECCENTRICITY":0.00177108,"INCLINATION":73.8711,"RA_OF_ASC_NODE":21.0879,"ARG_OF_PERICENTER":305.5115,"MEAN_ANOMALY":54.4385,"EPHEMERIS_TYPE":0,"CLASSIFICATION_TYPE":"U","NORAD_CAT_ID":35459,"ELEMENT_SET_NO":999,"REV_AT_EPOCH":59646,"BSTAR":0.00033505177,"MEAN_MOTION_DOT":9.8e-6,"MEAN_MOTION_DDOT":0},{"OBJECT_NAME":"COSMOS 2251 DEB","OBJECT_ID":"1993-036ALG","EPOCH":"2026-03-12T18:16:01.869600","MEAN_MOTION":14.30108182,"ECCENTRICITY":0.00821267,"INCLINATION":74.0348,"RA_OF_ASC_NODE":105.0859,"ARG_OF_PERICENTER":120.1481,"MEAN_ANOMALY":240.784,"EPHEMERIS_TYPE":0,"CLASSIFICATION_TYPE":"U","NORAD_CAT_ID":35462,"ELEMENT_SET_NO":999,"REV_AT_EPOCH":67667,"BSTAR":0.0010793659,"MEAN_MOTION_DOT":2.87e-5,"MEAN_MOTION_DDOT":0}]
