COSMOS 2251 DEB         
1 35433U 93036AKB 26055.74533743  .00000777  00000+0  28169-3 0  9992
2 35433  74.0331 202.8312 0027307 243.8970 180.0673 14.34882577876429
COSMOS 2251 DEB         
1 35434U 93036AKC 26071.29834254  .00001664  00000+0  68146-3 0  9997
2 35434  74.0398  51.9283 0084065 102.3060 258.7515 14.26031614873947
COSMOS 2251 DEB         
1 35435U 93036AKD 26072.85443602  .00013964  00000+0  17762-2 0  9997
2 35435  74.0088 284.2915 0007461 354.4122  23.4198 14.81607925888878
COSMOS 2251 DEB         
1 35439U 93036AKH 26065.51597322  .00002397  00000+0  14570-2 0  9997
2 35439  74.0202 351.1264 0241154 142.2262  30.2017 13.93289547851276
COSMOS 2251 DEB         
1 35441U 93036AKK 26073.41636183  .00007386  00000+0  13919-2 0  9996
2 35441  74.1335 123.2562 0036574 343.2948  16.7013 14.64258294887715
COSMOS 2251 DEB         
1 35442U 93036AKL 26073.55670976  .00031013  00000+0  32888-2 0  9990
2 35442  74.0236 276.2763 0003391 244.3064 115.7767 14.88946292887172
COSMOS 2251 DEB         
1 35443U 93036AKM 26072.19089474  .00070957  00000+0  42412-2 0  9991
2 35443  73.9805 146.4930 0068606 272.4330  86.9008 15.08730417882361
COSMOS 2251 DEB         
1 35445U 93036AKP 26073.56076614  .00010078  00000+0  17812-2 0  9991
2 35445  74.0353 124.6742 0140755 190.9090 168.9018 14.61171999886699
COSMOS 2251 DEB         
1 35446U 93036AKQ 26073.62594330  .00000479  00000+0  11454-3 0  9990
2 35446  74.0468 144.4341 0076846 240.0633 119.2884 14.54740886893441
COSMOS 2251 DEB         
1 35448U 93036AKS 26070.55724314  .00003142  00000+0  73397-3 0  9992
2 35448  73.9026 280.0947 0010438  81.2509 278.9835 14.55098698886261
COSMOS 2251 DEB         
1 35451U 93036AKV 26072.25928935  .00112414  00000+0  18976-2 0  9994
2 35451  73.9249 265.0895 0029260 129.0445 231.3379 15.50674045688011
COSMOS 2251 DEB         
1 35453U 93036AKX 26070.10582197  .00002646  00000+0  85303-3 0  9998
2 35453  74.0077 217.2854 0068526 328.3510  31.3531 14.38384722874899
COSMOS 2251 DEB         
1 35455U 93036AKZ 26073.56247328  .00003970  00000+0  96154-3 0  9994
2 35455  74.0265 122.2932 0101260 206.0575 153.5470 14.50242947878741
COSMOS 2251 DEB         
1 35456U 93036ALA 26073.35864553  .00011583  00000+0  18051-2 0  9995
2 35456  73.9497 298.7290 0063575 128.1514 232.5410 14.71626393672227
COSMOS 2251 DEB         
1 35459U 93036ALD 26071.14246031  .00000980  00000+0  33505-3 0  9999
2 35459  73.8711  21.0879 0017710 305.5115  54.4385 14.37641136596463
COSMOS 2251 DEB         
1 35462U 93036ALG 26071.76113275  .00002870  00000+0  10794-2 0  9998
2 35462  74.0348 105.0859 0082126 120.1481 240.7840 14.30108182676677
